IRIDIUM 63              
1 25286U 98021B   25227.52533998  .00000324  00000+0  10354-3 0  9999
2 25286  86.3935  57.2213 0002346  89.3896 270.7570 14.36580955432639
IRIDIUM 69              
1 25319U 98026A   25227.49467658  .00000360  00000+0  10585-3 0  9992
2 25319  86.3922  70.3463 0002919 141.3283 218.8126 14.41013974431604
IRIDIUM 71              
1 25320U 98026B   25227.49383881  .00000342  00000+0  99966-4 0  9990
2 25320  86.3923  65.0263 0000703 164.5969 195.5253 14.41196786432384
IRIDIUM 73              
1 25344U 98032C   25227.47705278  .00000559  00000+0  13394-3 0  9999
2 25344  86.4423  21.6230 0002631 104.4678 255.6820 14.51770262439462
IRIDIUM 82              
1 25467U 98051A   25227.54390592  .00026553  00000+0  70097-3 0  9998
2 25467  86.3617  80.4892 0083068  71.5091 289.5164 15.34782404433054
